{
  "norad_id": 41174,
  "name": "GSAT0209 (GALILEO 12)",
  "history": [
    {
      "epoch": "2026-03-28T02:09:49.627872",
      "apogee_km": 23238.02933378405,
      "perigee_km": 23206.274735713352,
      "latitude_deg": 37.46694346315915,
      "longitude_deg": 106.05514207994565,
      "semi_major_axis_km": 29600.2890347487,
      "eccentricity": 0.00053639,
      "inclination_deg": 55.7756,
      "raan_deg": 103.4845,
      "arg_perigee_deg": 324.7749,
      "mean_anomaly_deg": 35.2418,
      "mean_motion_rev_day": 1.70474268
    }
  ]
}